NAVSTAR 72 (USA 258)    
1 40294U 14068A   26189.85970982 -.00000050  00000+0  00000+0 0  9996
2 40294  57.0024  30.1204 0067446  71.3730 289.4121  2.00577411 85644
NAVSTAR 73 (USA 260)    
1 40534U 15013A   26190.99834083  .00000112  00000+0  00000+0 0  9990
2 40534  53.1666 203.2341 0110175  40.3280 320.5320  2.00549961 82283
NAVSTAR 74 (USA 262)    
1 40730U 15033A   26191.15653412  .00000007  00000+0  00000+0 0  9997
2 40730  53.9649 266.1387 0115274  30.2838 330.4454  2.00555017 80454
NAVSTAR 75 (USA 265)    
1 41019U 15062A   26191.21161638 -.00000050  00000+0  00000+0 0  9990
2 41019  56.9748  29.9248 0112642 230.9097 128.1346  2.00566916 78292
NAVSTAR 76 (USA 266)    
1 41328U 16007A   26189.80752889 -.00000030  00000+0  00000+0 0  9997
2 41328  55.5370  88.6024 0096602 247.6357 111.3718  2.00575699 76277
NAVSTAR 77 (USA 289)    
1 43873U 18109A   26191.18934832 -.00000035  00000+0  00000+0 0  9998
2 43873  55.6952  91.2795 0038527 197.3237 335.0463  2.00562552 55538
NAVSTAR 78 (USA 293)    
1 44506U 19056A   26190.83972038 -.00000079  00000+0  00000+0 0  9993
2 44506  55.6250 330.2434 0063211 198.0806 346.0647  2.00569870 50527
NAVSTAR 79 (USA 304)    
1 45854U 20041A   26190.41363906 -.00000051  00000+0  00000+0 0  9998
2 45854  56.6838  28.0825 0064868 204.5737 329.3412  2.00557912 44484
NAVSTAR 80 (USA 309)    
1 46826U 20078A   26191.22518141  .00000111  00000+0  00000+0 0  9997
2 46826  53.9779 209.8444 0074426 207.6928 169.3151  2.00564821 41971
NAVSTAR 81 (USA 319)    
1 48859U 21054A   26191.16586108 -.00000081  00000+0  00000+0 0  9998
2 48859  55.1625 331.5367 0026334 228.5055 292.0216  2.00567329 37212
NAVSTAR 82 (USA 343)    
1 55268U 23009A   26191.13810753  .00000048  00000+0  00000+0 0  9997
2 55268  55.1237 147.6170 0006209 320.5296 218.5554  2.00569891 25705
NAVSTAR 83 (USA 440)    
1 62339U 24242A   26191.27208483 -.00000082  00000+0  00000+0 0  9999
2 62339  54.8387 333.2464 0017772   3.9598 354.1894  2.00571820 11712
NAVSTAR 84 (USA 545)    
1 64202U 25116A   26191.01629376 -.00000054  00000+0  00000+0 0  9990
2 64202  55.2518  30.2129 0008288 339.6423  16.9014  2.00574022  8321
