[
    {
        "OBJECT_NAME": "NAVSTAR 72 (USA 258)",
        "OBJECT_ID": "2014-068A",
        "EPOCH": "2026-07-08T20:37:58.928448",
        "MEAN_MOTION": 2.00577411,
        "ECCENTRICITY": 0.00674461,
        "INCLINATION": 57.0024,
        "RA_OF_ASC_NODE": 30.1204,
        "ARG_OF_PERICENTER": 71.373,
        "MEAN_ANOMALY": 289.4121,
        "EPHEMERIS_TYPE": 0,
        "CLASSIFICATION_TYPE": "U",
        "NORAD_CAT_ID": 40294,
        "ELEMENT_SET_NO": 999,
        "REV_AT_EPOCH": 8564,
        "BSTAR": 0,
        "MEAN_MOTION_DOT": -5e-07,
        "MEAN_MOTION_DDOT": 0
    },
    {
        "OBJECT_NAME": "NAVSTAR 73 (USA 260)",
        "OBJECT_ID": "2015-013A",
        "EPOCH": "2026-07-09T23:57:36.647712",
        "MEAN_MOTION": 2.00549961,
        "ECCENTRICITY": 0.01101751,
        "INCLINATION": 53.1666,
        "RA_OF_ASC_NODE": 203.2341,
        "ARG_OF_PERICENTER": 40.328,
        "MEAN_ANOMALY": 320.532,
        "EPHEMERIS_TYPE": 0,
        "CLASSIFICATION_TYPE": "U",
        "NORAD_CAT_ID": 40534,
        "ELEMENT_SET_NO": 999,
        "REV_AT_EPOCH": 8228,
        "BSTAR": 0,
        "MEAN_MOTION_DOT": 1.12e-06,
        "MEAN_MOTION_DDOT": 0
    },
    {
        "OBJECT_NAME": "NAVSTAR 74 (USA 262)",
        "OBJECT_ID": "2015-033A",
        "EPOCH": "2026-07-10T03:45:24.547968",
        "MEAN_MOTION": 2.00555017,
        "ECCENTRICITY": 0.01152742,
        "INCLINATION": 53.9649,
        "RA_OF_ASC_NODE": 266.1387,
        "ARG_OF_PERICENTER": 30.2838,
        "MEAN_ANOMALY": 330.4454,
        "EPHEMERIS_TYPE": 0,
        "CLASSIFICATION_TYPE": "U",
        "NORAD_CAT_ID": 40730,
        "ELEMENT_SET_NO": 999,
        "REV_AT_EPOCH": 8045,
        "BSTAR": 0,
        "MEAN_MOTION_DOT": 7e-08,
        "MEAN_MOTION_DDOT": 0
    },
    {
        "OBJECT_NAME": "NAVSTAR 75 (USA 265)",
        "OBJECT_ID": "2015-062A",
        "EPOCH": "2026-07-10T05:04:43.655232",
        "MEAN_MOTION": 2.00566916,
        "ECCENTRICITY": 0.0112642,
        "INCLINATION": 56.9748,
        "RA_OF_ASC_NODE": 29.9248,
        "ARG_OF_PERICENTER": 230.9097,
        "MEAN_ANOMALY": 128.1346,
        "EPHEMERIS_TYPE": 0,
        "CLASSIFICATION_TYPE": "U",
        "NORAD_CAT_ID": 41019,
        "ELEMENT_SET_NO": 999,
        "REV_AT_EPOCH": 7829,
        "BSTAR": 0,
        "MEAN_MOTION_DOT": -5e-07,
        "MEAN_MOTION_DDOT": 0
    },
    {
        "OBJECT_NAME": "NAVSTAR 76 (USA 266)",
        "OBJECT_ID": "2016-007A",
        "EPOCH": "2026-07-08T19:22:50.496096",
        "MEAN_MOTION": 2.00575699,
        "ECCENTRICITY": 0.00966024,
        "INCLINATION": 55.537,
        "RA_OF_ASC_NODE": 88.6024,
        "ARG_OF_PERICENTER": 247.6357,
        "MEAN_ANOMALY": 111.3718,
        "EPHEMERIS_TYPE": 0,
        "CLASSIFICATION_TYPE": "U",
        "NORAD_CAT_ID": 41328,
        "ELEMENT_SET_NO": 999,
        "REV_AT_EPOCH": 7627,
        "BSTAR": 0,
        "MEAN_MOTION_DOT": -3e-07,
        "MEAN_MOTION_DDOT": 0
    },
    {
        "OBJECT_NAME": "NAVSTAR 77 (USA 289)",
        "OBJECT_ID": "2018-109A",
        "EPOCH": "2026-07-10T04:32:39.694848",
        "MEAN_MOTION": 2.00562552,
        "ECCENTRICITY": 0.00385279,
        "INCLINATION": 55.6952,
        "RA_OF_ASC_NODE": 91.2795,
        "ARG_OF_PERICENTER": 197.3237,
        "MEAN_ANOMALY": 335.0463,
        "EPHEMERIS_TYPE": 0,
        "CLASSIFICATION_TYPE": "U",
        "NORAD_CAT_ID": 43873,
        "ELEMENT_SET_NO": 999,
        "REV_AT_EPOCH": 5553,
        "BSTAR": 0,
        "MEAN_MOTION_DOT": -3.5e-07,
        "MEAN_MOTION_DDOT": 0
    },
    {
        "OBJECT_NAME": "NAVSTAR 78 (USA 293)",
        "OBJECT_ID": "2019-056A",
        "EPOCH": "2026-07-09T20:09:11.840832",
        "MEAN_MOTION": 2.0056987,
        "ECCENTRICITY": 0.00632111,
        "INCLINATION": 55.625,
        "RA_OF_ASC_NODE": 330.2434,
        "ARG_OF_PERICENTER": 198.0806,
        "MEAN_ANOMALY": 346.0647,
        "EPHEMERIS_TYPE": 0,
        "CLASSIFICATION_TYPE": "U",
        "NORAD_CAT_ID": 44506,
        "ELEMENT_SET_NO": 999,
        "REV_AT_EPOCH": 5052,
        "BSTAR": 0,
        "MEAN_MOTION_DOT": -7.9e-07,
        "MEAN_MOTION_DDOT": 0
    },
    {
        "OBJECT_NAME": "NAVSTAR 79 (USA 304)",
        "OBJECT_ID": "2020-041A",
        "EPOCH": "2026-07-09T09:55:38.414784",
        "MEAN_MOTION": 2.00557912,
        "ECCENTRICITY": 0.00648682,
        "INCLINATION": 56.6838,
        "RA_OF_ASC_NODE": 28.0825,
        "ARG_OF_PERICENTER": 204.5737,
        "MEAN_ANOMALY": 329.3412,
        "EPHEMERIS_TYPE": 0,
        "CLASSIFICATION_TYPE": "U",
        "NORAD_CAT_ID": 45854,
        "ELEMENT_SET_NO": 999,
        "REV_AT_EPOCH": 4448,
        "BSTAR": 0,
        "MEAN_MOTION_DOT": -5.1e-07,
        "MEAN_MOTION_DDOT": 0
    },
    {
        "OBJECT_NAME": "NAVSTAR 80 (USA 309)",
        "OBJECT_ID": "2020-078A",
        "EPOCH": "2026-07-10T05:24:15.673824",
        "MEAN_MOTION": 2.00564821,
        "ECCENTRICITY": 0.00744261,
        "INCLINATION": 53.9779,
        "RA_OF_ASC_NODE": 209.8444,
        "ARG_OF_PERICENTER": 207.6928,
        "MEAN_ANOMALY": 169.3151,
        "EPHEMERIS_TYPE": 0,
        "CLASSIFICATION_TYPE": "U",
        "NORAD_CAT_ID": 46826,
        "ELEMENT_SET_NO": 999,
        "REV_AT_EPOCH": 4197,
        "BSTAR": 0,
        "MEAN_MOTION_DOT": 1.11e-06,
        "MEAN_MOTION_DDOT": 0
    },
    {
        "OBJECT_NAME": "NAVSTAR 81 (USA 319)",
        "OBJECT_ID": "2021-054A",
        "EPOCH": "2026-07-10T03:58:50.397312",
        "MEAN_MOTION": 2.00567329,
        "ECCENTRICITY": 0.0026334,
        "INCLINATION": 55.1625,
        "RA_OF_ASC_NODE": 331.5367,
        "ARG_OF_PERICENTER": 228.5055,
        "MEAN_ANOMALY": 292.0216,
        "EPHEMERIS_TYPE": 0,
        "CLASSIFICATION_TYPE": "U",
        "NORAD_CAT_ID": 48859,
        "ELEMENT_SET_NO": 999,
        "REV_AT_EPOCH": 3721,
        "BSTAR": 0,
        "MEAN_MOTION_DOT": -8.1e-07,
        "MEAN_MOTION_DDOT": 0
    },
    {
        "OBJECT_NAME": "NAVSTAR 82 (USA 343)",
        "OBJECT_ID": "2023-009A",
        "EPOCH": "2026-07-10T03:18:52.490592",
        "MEAN_MOTION": 2.00569891,
        "ECCENTRICITY": 0.00062095,
        "INCLINATION": 55.1237,
        "RA_OF_ASC_NODE": 147.617,
        "ARG_OF_PERICENTER": 320.5296,
        "MEAN_ANOMALY": 218.5554,
        "EPHEMERIS_TYPE": 0,
        "CLASSIFICATION_TYPE": "U",
        "NORAD_CAT_ID": 55268,
        "ELEMENT_SET_NO": 999,
        "REV_AT_EPOCH": 2570,
        "BSTAR": 0,
        "MEAN_MOTION_DOT": 4.8e-07,
        "MEAN_MOTION_DDOT": 0
    },
    {
        "OBJECT_NAME": "NAVSTAR 83 (USA 440)",
        "OBJECT_ID": "2024-242A",
        "EPOCH": "2026-07-10T06:31:48.129312",
        "MEAN_MOTION": 2.0057182,
        "ECCENTRICITY": 0.00177722,
        "INCLINATION": 54.8387,
        "RA_OF_ASC_NODE": 333.2464,
        "ARG_OF_PERICENTER": 3.9598,
        "MEAN_ANOMALY": 354.1894,
        "EPHEMERIS_TYPE": 0,
        "CLASSIFICATION_TYPE": "U",
        "NORAD_CAT_ID": 62339,
        "ELEMENT_SET_NO": 999,
        "REV_AT_EPOCH": 1171,
        "BSTAR": 0,
        "MEAN_MOTION_DOT": -8.2e-07,
        "MEAN_MOTION_DDOT": 0
    },
    {
        "OBJECT_NAME": "NAVSTAR 84 (USA 545)",
        "OBJECT_ID": "2025-116A",
        "EPOCH": "2026-07-10T00:23:27.780864",
        "MEAN_MOTION": 2.00574022,
        "ECCENTRICITY": 0.00082887,
        "INCLINATION": 55.2518,
        "RA_OF_ASC_NODE": 30.2129,
        "ARG_OF_PERICENTER": 339.6423,
        "MEAN_ANOMALY": 16.9014,
        "EPHEMERIS_TYPE": 0,
        "CLASSIFICATION_TYPE": "U",
        "NORAD_CAT_ID": 64202,
        "ELEMENT_SET_NO": 999,
        "REV_AT_EPOCH": 832,
        "BSTAR": 0,
        "MEAN_MOTION_DOT": -5.4e-07,
        "MEAN_MOTION_DDOT": 0
    }
]
